TECHNOSAT               
1 42829U 17042E   17345.89643530  .00000282  00000-0  34078-4 0  9995
2 42829  97.6079 250.1469 0015739 101.0709 259.2280 14.90735362 22423
